{"fetched_at":"2026-03-29T16:36:15Z","count":15609,"tles":[{"name":"STARLINK-32101","line1":"1 60447U 24144Y   26087.82990794  .00000440  00000+0  26993-4 0  9997","line2":"2 60447  53.1597 127.9362 0001493  88.2614 271.8558 15.30192732 92245","category":"Starlink"}]}